ONEWEB-0403             
1 50483U 21132Q   25015.56321631  .00000037  00000+0  60000-4 0  9998
2 50483  87.9084  78.4297 0001899  97.3561 262.7787 13.18684283153375
ONEWEB-0404             
1 50484U 21132R   25015.35270500  .00000447  00000+0  12254-2 0  9995
2 50484  87.8914 124.2783 0001730  92.4443 267.6883 13.11414036147820
ONEWEB-0405             
1 50485U 21132S   25015.57902002 -.00000289  00000+0 -76645-3 0  9990
2 50485  87.9083  78.4163 0001524  97.9694 262.1611 13.18685098153775
ONEWEB-0406             
1 50486U 21132T   25015.56795862 -.00000310  00000+0 -81819-3 0  9998
2 50486  87.9085  78.4347 0002415  92.9132 267.2276 13.18685735153405
ONEWEB-0407             
1 50487U 21132U   25015.56162852  .00000061  00000+0  12304-3 0  9990
2 50487  87.9082  78.4283 0001663  98.4009 261.7312 13.18689201153345
ONEWEB-0409             
1 50488U 21132V   25015.35103063  .00000426  00000+0  11656-2 0  9990
2 50488  87.8905 124.2568 0001923  99.3506 260.7840 13.11416918147711
ONEWEB-0412             
1 50489U 21132W   25015.55056258 -.00000018  00000+0 -78498-4 0  9994
2 50489  87.9084  78.4403 0001396 102.8065 257.3223 13.18688276153431
ONEWEB-0413             
1 50490U 21132X   25015.55530469  .00000079  00000+0  16776-3 0  9992
2 50490  87.9084  78.4514 0001465 106.1087 254.0207 13.18688743153372
